$$SOE
2460721.500000000, A.D. 2025-Feb-15 00:00:00.0000, 1.808128023041527E+08, -1.773645402482281E+08, 3.382384844034754E+06,
2460728.500000000, A.D. 2025-Feb-22 00:00:00.0000, 1.910752100981987E+08, -1.657207889378290E+08, 4.426815378406838E+06,
2460735.500000000, A.D. 2025-Mar-01 00:00:00.0000, 2.007648691361256E+08, -1.535803559736832E+08, 5.457974946389437E+06,
2460742.500000000, A.D. 2025-Mar-08 00:00:00.0000, 2.098517697209454E+08, -1.409788666905142E+08, 6.472746921512648E+06,
2460749.500000000, A.D. 2025-Mar-15 00:00:00.0000, 2.183091082058450E+08, -1.279544484475121E+08, 7.468099765720867E+06,
2460756.500000000, A.D. 2025-Mar-22 00:00:00.0000, 2.261135468819618E+08, -1.145473411461924E+08, 8.441117550904602E+06,
2460763.500000000, A.D. 2025-Mar-29 00:00:00.0000, 2.332454131716309E+08, -1.007994765407175E+08, 9.389027933756776E+06,
2460770.500000000, A.D. 2025-Apr-05 00:00:00.0000, 2.396888340327846E+08, -8.675403508217159E+07, 1.030922709026398E+07,
2460777.500000000, A.D. 2025-Apr-12 00:00:00.0000, 2.454318018905193E+08, -7.245499260594974E+07, 1.119930120705624E+07,
2460784.500000000, A.D. 2025-Apr-19 00:00:00.0000, 2.504661728006464E+08, -5.794667002433220E+07, 1.205704404361621E+07,
2460791.500000000, A.D. 2025-Apr-26 00:00:00.0000, 2.547876004782853E+08, -4.327329775617690E+07, 1.288047026332501E+07,
2460798.500000000, A.D. 2025-May-03 00:00:00.0000, 2.583954118060784E+08, -2.847860512448763E+07, 1.366782443662149E+07,
2460805.500000000, A.D. 2025-May-10 00:00:00.0000, 2.612924310503272E+08, -1.360544328240406E+07, 1.441758578989011E+07,
2460812.500000000, A.D. 2025-May-17 00:00:00.0000, 2.634847612156728E+08, 1.304551658784271E+06, 1.512846891359399E+07,
2460819.500000000, A.D. 2025-May-24 00:00:00.0000, 2.649815317751001E+08, 1.621125065418529E+07, 1.579942074764114E+07,
2460826.500000000, A.D. 2025-May-31 00:00:00.0000, 2.657946224147837E+08, 3.107627663708444E+07, 1.642961425558834E+07,
2460833.500000000, A.D. 2025-Jun-07 00:00:00.0000, 2.659383713410037E+08, 4.586320283482751E+07, 1.701843940651468E+07,
2460840.500000000, A.D. 2025-Jun-14 00:00:00.0000, 2.654292741383817E+08, 6.053770478040936E+07, 1.756549214625077E+07,
2460847.500000000, A.D. 2025-Jun-21 00:00:00.0000, 2.642856818601822E+08, 7.506766504161669E+07, 1.807056149759103E+07,
2460854.500000000, A.D. 2025-Jun-28 00:00:00.0000, 2.625275078520347E+08, 8.942323577619913E+07, 1.853361514072093E+07,
2460861.500000000, A.D. 2025-Jul-05 00:00:00.0000, 2.601759470240430E+08, 1.035768653619654E+08, 1.895478424929158E+07,
2460868.500000000, A.D. 2025-Jul-12 00:00:00.0000, 2.572532104689950E+08, 1.175032928352351E+08, 1.933434803912747E+07,
2460875.500000000, A.D. 2025-Jul-19 00:00:00.0000, 2.537822786036959E+08, 1.311795142897759E+08, 1.967271832283724E+07,
2460882.500000000, A.D. 2025-Jul-26 00:00:00.0000, 2.497866750194955E+08, 1.445847258818191E+08, 1.997042434409859E+07,
2460889.500000000, A.D. 2025-Aug-02 00:00:00.0000, 2.452902621890098E+08, 1.577002479725443E+08, 2.022809812423176E+07,
2460896.500000000, A.D. 2025-Aug-09 00:00:00.0000, 2.403170593706368E+08, 1.705094345945649E+08, 2.044646049703886E+07,
2460903.500000000, A.D. 2025-Aug-16 00:00:00.0000, 2.348910824867130E+08, 1.829975720031834E+08, 2.062630794992488E+07,
2460910.500000000, A.D. 2025-Aug-23 00:00:00.0000, 2.290362054994245E+08, 1.951517697355076E+08, 2.076850033715872E+07,
2460917.500000000, A.D. 2025-Aug-30 00:00:00.0000, 2.227760425115227E+08, 2.069608478472532E+08, 2.087394955063939E+07,
2460924.500000000, A.D. 2025-Sep-06 00:00:00.0000, 2.161338478259693E+08, 2.184152238181172E+08, 2.094360938349643E+07,
2460931.500000000, A.D. 2025-Sep-13 00:00:00.0000, 2.091324307850191E+08, 2.295067987102161E+08, 2.097846653467134E+07,
2460938.500000000, A.D. 2025-Sep-20 00:00:00.0000, 2.017940870906561E+08, 2.402288426095836E+08, 2.097953229641080E+07,
2460945.500000000, A.D. 2025-Sep-27 00:00:00.0000, 1.941405460637212E+08, 2.505758837628360E+08, 2.094783503843808E+07,
2460952.500000000, A.D. 2025-Oct-04 00:00:00.0000, 1.861929302404526E+08, 2.605436029395382E+08, 2.088441366469592E+07,
2460959.500000000, A.D. 2025-Oct-11 00:00:00.0000, 1.779717254179182E+08, 2.701287328053184E+08, 2.079031194171450E+07,
2460966.500000000, A.D. 2025-Oct-18 00:00:00.0000, 1.694967600100102E+08, 2.793289625304263E+08, 2.066657358849540E+07,
2460973.500000000, A.D. 2025-Oct-25 00:00:00.0000, 1.607871925370105E+08, 2.881428479517586E+08, 2.051423805281463E+07,
2460980.500000000, A.D. 2025-Nov-01 00:00:00.0000, 1.518615060847735E+08, 2.965697274535563E+08, 2.033433690863569E+07,
2460987.500000000, A.D. 2025-Nov-08 00:00:00.0000, 1.427375086805218E+08, 3.046096435586292E+08, 2.012789080750176E+07,
2460994.500000000, A.D. 2025-Nov-15 00:00:00.0000, 1.334323387599506E+08, 3.122632700953264E+08, 1.989590690668511E+07,
2461001.500000000, A.D. 2025-Nov-22 00:00:00.0000, 1.239624752655593E+08, 3.195318450085660E+08, 1.963937669945942E+07,
2461008.500000000, A.D. 2025-Nov-29 00:00:00.0000, 1.143437514661650E+08, 3.264171097411103E+08, 1.935927430181846E+07,
2461015.500000000, A.D. 2025-Dec-06 00:00:00.0000, 1.045913695574552E+08, 3.329212547913350E+08, 1.905655534384343E+07,
2461022.500000000, A.D. 2025-Dec-13 00:00:00.0000, 9.471991589125006E+07, 3.390468677949611E+08, 1.873215610638264E+07,
2461029.500000000, A.D. 2025-Dec-20 00:00:00.0000, 8.474337982711382E+07, 3.447968848749590E+08, 1.838699262773037E+07,
2461036.500000000, A.D. 2025-Dec-27 00:00:00.0000, 7.467517471327806E+07, 3.501745475604386E+08, 1.802196005478047E+07,
2461043.500000000, A.D. 2026-Jan-03 00:00:00.0000, 6.452815917884310E+07, 3.551833643638256E+08, 1.763793229041490E+07,
2461050.500000000, A.D. 2026-Jan-10 00:00:00.0000, 5.431465854602667E+07, 3.598270760503067E+08, 1.723576184374724E+07,
2461057.500000000, A.D. 2026-Jan-17 00:00:00.0000, 4.404648634610067E+07, 3.641096242293351E+08, 1.681627982950243E+07,
2461064.500000000, A.D. 2026-Jan-24 00:00:00.0000, 3.373496581170149E+07, 3.680351230217672E+08, 1.638029608889593E+07,
2461071.500000000, A.D. 2026-Jan-31 00:00:00.0000, 2.339095120053056E+07, 3.716078335380423E+08, 1.592859940936060E+07,
2461078.500000000, A.D. 2026-Feb-07 00:00:00.0000, 1.302484887498746E+07, 3.748321408668089E+08, 1.546195781527418E+07,
2461085.500000000, A.D. 2026-Feb-14 00:00:00.0000, 2.646638280753598E+06, 3.777125333307381E+08, 1.498111888995290E+07,
2461092.500000000, A.D. 2026-Feb-21 00:00:00.0000, -7.734106875063354E+06, 3.802535843753451E+08, 1.448681012731674E+07,
2461099.500000000, A.D. 2026-Feb-28 00:00:00.0000, -1.810819839635888E+07, 3.824599380502450E+08, 1.397973949540174E+07,
2461106.500000000, A.D. 2026-Mar-07 00:00:00.0000, -2.846681642531548E+07, 3.843362959484413E+08, 1.346059623086020E+07,
2461113.500000000, A.D. 2026-Mar-14 00:00:00.0000, -3.880149258617017E+07, 3.858874030970752E+08, 1.293005141102621E+07,
2461120.500000000, A.D. 2026-Mar-21 00:00:00.0000, -4.910409168929028E+07, 3.871180355485829E+08, 1.238875837005386E+07,
2461127.500000000, A.D. 2026-Mar-28 00:00:00.0000, -5.936679401544485E+07, 3.880329905641425E+08, 1.183735322108352E+07,
2461134.500000000, A.D. 2026-Apr-04 00:00:00.0000, -6.958207878730376E+07, 3.886370782938364E+08, 1.127645545556998E+07,
2461141.500000000, A.D. 2026-Apr-11 00:00:00.0000, -7.974270855221896E+07, 3.889351144759287E+08, 1.070666856090745E+07,
2461148.500000000, A.D. 2026-Apr-18 00:00:00.0000, -8.984171430859631E+07, 3.889319140422855E+08, 1.012858063749617E+07,
2461155.500000000, A.D. 2026-Apr-25 00:00:00.0000, -9.987238131598884E+07, 3.886322855470430E+08, 9.542765009060353E+06,
2461162.500000000, A.D. 2026-May-02 00:00:00.0000, -1.098282355404535E+08, 3.880410262980300E+08, 8.949780818329692E+06,
2461169.500000000, A.D. 2026-May-09 00:00:00.0000, -1.197030305917853E+08, 3.871629180402360E+08, 8.350173589254647E+06,
2461176.500000000, A.D. 2026-May-16 00:00:00.0000, -1.294907347571153E+08, 3.860027232534952E+08, 7.744475731104106E+06,
2461183.500000000, A.D. 2026-May-23 00:00:00.0000, -1.391855180627880E+08, 3.845651830219253E+08, 7.133207062394649E+06,
2461190.500000000, A.D. 2026-May-30 00:00:00.0000, -1.487817414244164E+08, 3.828550167417644E+08, 6.516875570444614E+06,
2461197.500000000, A.D. 2026-Jun-06 00:00:00.0000, -1.582739481777236E+08, 3.808769203446560E+08, 5.895978167125314E+06,
2461204.500000000, A.D. 2026-Jun-13 00:00:00.0000, -1.676568543006536E+08, 3.786355631856716E+08, 5.271001120299339E+06,
2461211.500000000, A.D. 2026-Jun-20 00:00:00.0000, -1.769253378072525E+08, 3.761355864821198E+08, 4.642420445275009E+06,
2461218.500000000, A.D. 2026-Jun-27 00:00:00.0000, -1.860744289878260E+08, 3.733816029274954E+08, 4.010702383387744E+06,
2461225.500000000, A.D. 2026-Jul-04 00:00:00.0000, -1.950993014718189E+08, 3.703781966699044E+08, 3.376303903933674E+06,
2461232.500000000, A.D. 2026-Jul-11 00:00:00.0000, -2.039952638379671E+08, 3.671299234907348E+08, 2.739673195183918E+06,
2461239.500000000, A.D. 2026-Jul-18 00:00:00.0000, -2.127577516586522E+08, 3.636413111812211E+08, 2.101250137982368E+06,
2461246.500000000, A.D. 2026-Jul-25 00:00:00.0000, -2.213823199343601E+08, 3.599168600950644E+08, 1.461466759918153E+06,
2461253.500000000, A.D. 2026-Aug-01 00:00:00.0000, -2.298646358511392E+08, 3.559610438073672E+08, 8.207476618427038E+05,
2461260.500000000, A.D. 2026-Aug-08 00:00:00.0000, -2.382004716278782E+08, 3.517783098248678E+08, 1.795103943213969E+05,
2461267.500000000, A.D. 2026-Aug-15 00:00:00.0000, -2.463856970210954E+08, 3.473730807809211E+08, -4.618342169000506E+05,
2461274.500000000, A.D. 2026-Aug-22 00:00:00.0000, -2.544162722327858E+08, 3.427497573224023E+08, -1.102881626472726E+06,
2461281.500000000, A.D. 2026-Aug-29 00:00:00.0000, -2.622882434953946E+08, 3.379127213054925E+08, -1.743232908109576E+06,
2461288.500000000, A.D. 2026-Sep-05 00:00:00.0000, -2.699977391825103E+08, 3.328663364212912E+08, -2.382494305889130E+06,
$$EOE